{
  "type": "FeatureCollection",
  "features": [
    {
      "type": "Feature",
      "properties": {
        "norad_id": 66690,
        "name": "TRANSPORTER-15AA",
        "group": "last-30-days",
        "lat": 69.16933187626563,
        "lon": 51.051367574664546,
        "alt_km": 510.3974387635035,
        "timestamp": "2025-12-25T14:48:23.569213+00:00",
        "meta_object_name": "TRANSPORTER-15AA",
        "meta_object_id": "2025-276AA",
        "meta_epoch": "2025-12-25T03:24:57.136608",
        "meta_mean_motion": 15.1708537,
        "meta_eccentricity": 0.00036945,
        "meta_inclination": 97.439,
        "meta_ra_of_asc_node": 70.6704,
        "meta_arg_of_pericenter": 236.9066,
        "meta_mean_anomaly": 123.1813,
        "meta_ephemeris_type": 0,
        "meta_classification_type": "U",
        "meta_norad_cat_id": 66690,
        "meta_element_set_no": 999,
        "meta_rev_at_epoch": 400,
        "meta_bstar": 0.00038258974,
        "meta_mean_motion_dot": 7.515e-05,
        "meta_mean_motion_ddot": 0,
        "tle_line1": "1 66690U 25276AA  25359.14232797  .00007515  00000+0  38259-3 0  9995",
        "tle_line2": "2 66690  97.4390  70.6704 0003694 236.9066 123.1813 15.17085370  4009"
      },
      "geometry": {
        "type": "Point",
        "coordinates": [
          51.051367574664546,
          69.16933187626563
        ]
      }
    },
    {
      "type": "Feature",
      "properties": {
        "norad_id": 66691,
        "name": "TRANSPORTER-15AB",
        "group": "last-30-days",
        "lat": 80.40511064621555,
        "lon": 20.509336385999543,
        "alt_km": 508.76657902022725,
        "timestamp": "2025-12-25T14:48:23.569223+00:00",
        "meta_object_name": "TRANSPORTER-15AB",
        "meta_object_id": "2025-276AB",
        "meta_epoch": "2025-12-25T04:56:29.495616",
        "meta_mean_motion": 15.17347302,
        "meta_eccentricity": 0.00037854,
        "meta_inclination": 97.4414,
        "meta_ra_of_asc_node": 70.7461,
        "meta_arg_of_pericenter": 238.5101,
        "meta_mean_anomaly": 121.5763,
        "meta_ephemeris_type": 0,
        "meta_classification_type": "U",
        "meta_norad_cat_id": 66691,
        "meta_element_set_no": 999,
        "meta_rev_at_epoch": 401,
        "meta_bstar": 0.00063101216,
        "meta_mean_motion_dot": 0.0001254,
        "meta_mean_motion_ddot": 0,
        "tle_line1": "1 66691U 25276AB  25359.20589694  .00012540  00000+0  63101-3 0  9992",
        "tle_line2": "2 66691  97.4414  70.7461 0003785 238.5101 121.5763 15.17347302  4010"
      },
      "geometry": {
        "type": "Point",
        "coordinates": [
          20.509336385999543,
          80.40511064621555
        ]
      }
    },
    {
      "type": "Feature",
      "properties": {
        "norad_id": 66692,
        "name": "TRANSPORTER-15AC",
        "group": "last-30-days",
        "lat": 75.93138611538967,
        "lon": -77.40146205768835,
        "alt_km": 507.4666875292469,
        "timestamp": "2025-12-25T14:48:23.569232+00:00",
        "meta_object_name": "TRANSPORTER-15AC",
        "meta_object_id": "2025-276AC",
        "meta_epoch": "2025-12-25T04:51:46.971072",
        "meta_mean_motion": 15.17434141,
        "meta_eccentricity": 0.00017788,
        "meta_inclination": 97.4415,
        "meta_ra_of_asc_node": 70.7541,
        "meta_arg_of_pericenter": 253.086,
        "meta_mean_anomaly": 107.0178,
        "meta_ephemeris_type": 0,
        "meta_classification_type": "U",
        "meta_norad_cat_id": 66692,
        "meta_element_set_no": 999,
        "meta_rev_at_epoch": 401,
        "meta_bstar": 0.00035532127,
        "meta_mean_motion_dot": 7.044e-05,
        "meta_mean_motion_ddot": 0,
        "tle_line1": "1 66692U 25276AC  25359.20262698  .00007044  00000+0  35532-3 0  9995",
        "tle_line2": "2 66692  97.4415  70.7541 0001778 253.0860 107.0178 15.17434141  4012"
      },
      "geometry": {
        "type": "Point",
        "coordinates": [
          -77.40146205768835,
          75.93138611538967
        ]
      }
    },
    {
      "type": "Feature",
      "properties": {
        "norad_id": 66693,
        "name": "TRANSPORTER-15AD",
        "group": "last-30-days",
        "lat": 74.32388683199808,
        "lon": -81.11956424129329,
        "alt_km": 507.7984348090022,
        "timestamp": "2025-12-25T14:48:23.569241+00:00",
        "meta_object_name": "TRANSPORTER-15AD",
        "meta_object_id": "2025-276AD",
        "meta_epoch": "2025-12-24T20:56:40.467840",
        "meta_mean_motion": 15.17671154,
        "meta_eccentricity": 0.00032419,
        "meta_inclination": 97.4369,
        "meta_ra_of_asc_node": 70.41,
        "meta_arg_of_pericenter": 264.5717,
        "meta_mean_anomaly": 95.5147,
        "meta_ephemeris_type": 0,
        "meta_classification_type": "U",
        "meta_norad_cat_id": 66693,
        "meta_element_set_no": 999,
        "meta_rev_at_epoch": 396,
        "meta_bstar": 0.00094155416,
        "meta_mean_motion_dot": 0.00018934,
        "meta_mean_motion_ddot": 0,
        "tle_line1": "1 66693U 25276AD  25358.87269060  .00018934  00000+0  94155-3 0  9994",
        "tle_line2": "2 66693  97.4369  70.4100 0003241 264.5717  95.5147 15.17671154  3961"
      },
      "geometry": {
        "type": "Point",
        "coordinates": [
          -81.11956424129329,
          74.32388683199808
        ]
      }
    },
    {
      "type": "Feature",
      "properties": {
        "norad_id": 66694,
        "name": "YAM-9",
        "group": "last-30-days",
        "lat": 70.56973404337558,
        "lon": -87.09227204047326,
        "alt_km": 511.1974890504516,
        "timestamp": "2025-12-25T14:48:23.569250+00:00",
        "meta_object_name": "YAM-9",
        "meta_object_id": "2025-276AE",
        "meta_epoch": "2025-12-25T04:49:26.896800",
        "meta_mean_motion": 15.15930781,
        "meta_eccentricity": 0.00048545,
        "meta_inclination": 97.4417,
        "meta_ra_of_asc_node": 70.7513,
        "meta_arg_of_pericenter": 149.8803,
        "meta_mean_anomaly": 210.271,
        "meta_ephemeris_type": 0,
        "meta_classification_type": "U",
        "meta_norad_cat_id": 66694,
        "meta_element_set_no": 999,
        "meta_rev_at_epoch": 401,
        "meta_bstar": -0.051286624,
        "meta_mean_motion_dot": -0.00910974,
        "meta_mean_motion_ddot": 0,
        "tle_line1": "1 66694U 25276AE  25359.20100575 -.00910974  00000+0 -51287-1 0  9992",
        "tle_line2": "2 66694  97.4417  70.7513 0004854 149.8803 210.2710 15.15930781  4010"
      },
      "geometry": {
        "type": "Point",
        "coordinates": [
          -87.09227204047326,
          70.56973404337558
        ]
      }
    },
    {
      "type": "Feature",
      "properties": {
        "norad_id": 66695,
        "name": "IRIDE FM1",
        "group": "last-30-days",
        "lat": 2.3559111405860897,
        "lon": -108.50887720563745,
        "alt_km": 512.8000062814372,
        "timestamp": "2025-12-25T14:48:23.569258+00:00",
        "meta_object_name": "IRIDE FM1",
        "meta_object_id": "2025-276AF",
        "meta_epoch": "2025-12-25T02:57:19.369440",
        "meta_mean_motion": 15.18308505,
        "meta_eccentricity": 0.00017616,
        "meta_inclination": 97.4382,
        "meta_ra_of_asc_node": 70.6976,
        "meta_arg_of_pericenter": 136.1061,
        "meta_mean_anomaly": 224.0314,
        "meta_ephemeris_type": 0,
        "meta_classification_type": "U",
        "meta_norad_cat_id": 66695,
        "meta_element_set_no": 999,
        "meta_rev_at_epoch": 400,
        "meta_bstar": 0.00063960491,
        "meta_mean_motion_dot": 0.00013067,
        "meta_mean_motion_ddot": 0,
        "tle_line1": "1 66695U 25276AF  25359.12314085  .00013067  00000+0  63960-3 0  9995",
        "tle_line2": "2 66695  97.4382  70.6976 0001761 136.1061 224.0314 15.18308505  4001"
      },
      "geometry": {
        "type": "Point",
        "coordinates": [
          -108.50887720563745,
          2.3559111405860897
        ]
      }
    },
    {
      "type": "Feature",
      "properties": {
        "norad_id": 66696,
        "name": "IRIDE FM2",
        "group": "last-30-days",
        "lat": 78.9948274129016,
        "lon": -66.64273969840832,
        "alt_km": 508.44292803991993,
        "timestamp": "2025-12-25T14:48:23.569267+00:00",
        "meta_object_name": "IRIDE FM2",
        "meta_object_id": "2025-276AG",
        "meta_epoch": "2025-12-25T04:52:48.623520",
        "meta_mean_motion": 15.17467498,
        "meta_eccentricity": 0.00035119,
        "meta_inclination": 97.4391,
        "meta_ra_of_asc_node": 70.7391,
        "meta_arg_of_pericenter": 296.1613,
        "meta_mean_anomaly": 63.9259,
        "meta_ephemeris_type": 0,
        "meta_classification_type": "U",
        "meta_norad_cat_id": 66696,
        "meta_element_set_no": 999,
        "meta_rev_at_epoch": 401,
        "meta_bstar": 0.00087942687,
        "meta_mean_motion_dot": 0.00017574,
        "meta_mean_motion_ddot": 0,
        "tle_line1": "1 66696U 25276AG  25359.20334055  .00017574  00000+0  87943-3 0  9998",
        "tle_line2": "2 66696  97.4391  70.7391 0003511 296.1613  63.9259 15.17467498  4014"
      },
      "geometry": {
        "type": "Point",
        "coordinates": [
          -66.64273969840832,
          78.9948274129016
        ]
      }
    }
  ]
}